[
    {
        "Altitude(m)": 705348.2272278983,
        "Argument of Periapsis(deg)": 0.006834072711976239,
        "Eccentricity": 0.0,
        "Inclination(deg)": 45.0,
        "Latitude(deg)": 36.026717257648116,
        "Longitude(deg)": -94.12026758243351,
        "Mean Anomaly(deg)": -303.9891700115115,
        "RAAN(deg)": 319.99354883512507,
        "Satellite Name": "Constellation 1 1411",
        "Satellite Number": 1411,
        "Semi-Major Axis(m)": 7083131.272910544,
        "Time(s)": 114
    },
    {
        "Altitude(m)": 705354.1009961533,
        "Argument of Periapsis(deg)": 0.006894020718221645,
        "Eccentricity": 0.0,
        "Inclination(deg)": 45.0,
        "Latitude(deg)": 36.05644712584645,
        "Longitude(deg)": -94.05896217796685,
        "Mean Anomaly(deg)": -303.9284688712616,
        "RAAN(deg)": 319.9934922459595,
        "Satellite Name": "Constellation 1 1411",
        "Satellite Number": 1411,
        "Semi-Major Axis(m)": 7083131.272910544,
        "Time(s)": 115
    },
    {
        "Altitude(m)": 705359.971919221,
        "Argument of Periapsis(deg)": 0.006953968724467052,
        "Eccentricity": 0.0,
        "Inclination(deg)": 45.0,
        "Latitude(deg)": 36.086141136668175,
        "Longitude(deg)": -93.99760761292647,
        "Mean Anomaly(deg)": -303.8677677310117,
        "RAAN(deg)": 319.99343565679396,
        "Satellite Name": "Constellation 1 1411",
        "Satellite Number": 1411,
        "Semi-Major Axis(m)": 7083131.272910544,
        "Time(s)": 116
    },
    {
        "Altitude(m)": 705365.839960159,
        "Argument of Periapsis(deg)": 0.007013916730712457,
        "Eccentricity": 0.0,
        "Inclination(deg)": 45.0,
        "Latitude(deg)": 36.11579922490738,
        "Longitude(deg)": -93.93620385610869,
        "Mean Anomaly(deg)": -303.80706659076174,
        "RAAN(deg)": 319.9933790676283,
        "Satellite Name": "Constellation 1 1411",
        "Satellite Number": 1411,
        "Semi-Major Axis(m)": 7083131.272910544,
        "Time(s)": 117
    },
    {
        "Altitude(m)": 705371.7050820547,
        "Argument of Periapsis(deg)": 0.007073864736957864,
        "Eccentricity": 0.0,
        "Inclination(deg)": 45.0,
        "Latitude(deg)": 36.145421325301584,
        "Longitude(deg)": -93.87475087655771,
        "Mean Anomaly(deg)": -303.7463654505119,
        "RAAN(deg)": 319.9933224784628,
        "Satellite Name": "Constellation 1 1411",
        "Satellite Number": 1411,
        "Semi-Major Axis(m)": 7083131.272910544,
        "Time(s)": 118
    },
    {
        "Altitude(m)": 705377.567248028,
        "Argument of Periapsis(deg)": 0.0071338127432032696,
        "Eccentricity": 0.0,
        "Inclination(deg)": 45.0,
        "Latitude(deg)": 36.17500737253292,
        "Longitude(deg)": -93.81324881166299,
        "Mean Anomaly(deg)": -303.685664310262,
        "RAAN(deg)": 319.9932658892972,
        "Satellite Name": "Constellation 1 1411",
        "Satellite Number": 1411,
        "Semi-Major Axis(m)": 7083131.272910544,
        "Time(s)": 119
    },
    {
        "Altitude(m)": 705383.4264212304,
        "Argument of Periapsis(deg)": 0.007193760749448674,
        "Eccentricity": 0.0,
        "Inclination(deg)": 45.0,
        "Latitude(deg)": 36.20455730122739,
        "Longitude(deg)": -93.75169729477415,
        "Mean Anomaly(deg)": -303.6249631700121,
        "RAAN(deg)": 319.99320930013164,
        "Satellite Name": "Constellation 1 1411",
        "Satellite Number": 1411,
        "Semi-Major Axis(m)": 7083131.272910544,
        "Time(s)": 120
    },
    {
        "Altitude(m)": 705389.2825648414,
        "Argument of Periapsis(deg)": 0.007253708755694079,
        "Eccentricity": 0.0,
        "Inclination(deg)": 45.0,
        "Latitude(deg)": 36.234071045955794,
        "Longitude(deg)": -93.69009646378287,
        "Mean Anomaly(deg)": -303.56426202976223,
        "RAAN(deg)": 319.9931527109661,
        "Satellite Name": "Constellation 1 1411",
        "Satellite Number": 1411,
        "Semi-Major Axis(m)": 7083131.272910544,
        "Time(s)": 121
    },
    {
        "Altitude(m)": 705395.1356420813,
        "Argument of Periapsis(deg)": 0.0073136567619394854,
        "Eccentricity": 0.0,
        "Inclination(deg)": 45.0,
        "Latitude(deg)": 36.26354854123381,
        "Longitude(deg)": -93.62844628873687,
        "Mean Anomaly(deg)": -303.50356088951236,
        "RAAN(deg)": 319.9930961218005,
        "Satellite Name": "Constellation 1 1411",
        "Satellite Number": 1411,
        "Semi-Major Axis(m)": 7083131.272910544,
        "Time(s)": 122
    },
    {
        "Altitude(m)": 705400.9856161813,
        "Argument of Periapsis(deg)": 0.0073736047681848904,
        "Eccentricity": 0.0,
        "Inclination(deg)": 45.0,
        "Latitude(deg)": 36.292989721522346,
        "Longitude(deg)": -93.56674673993798,
        "Mean Anomaly(deg)": -303.4428597492624,
        "RAAN(deg)": 319.99303953263495,
        "Satellite Name": "Constellation 1 1411",
        "Satellite Number": 1411,
        "Semi-Major Axis(m)": 7083131.272910544,
        "Time(s)": 123
    },
    {
        "Altitude(m)": 705406.8324504198,
        "Argument of Periapsis(deg)": 0.007433552774430298,
        "Eccentricity": 0.0,
        "Inclination(deg)": 45.0,
        "Latitude(deg)": 36.322394521227466,
        "Longitude(deg)": -93.5049977879441,
        "Mean Anomaly(deg)": -303.38215860901255,
        "RAAN(deg)": 319.99298294346937,
        "Satellite Name": "Constellation 1 1411",
        "Satellite Number": 1411,
        "Semi-Major Axis(m)": 7083131.272910544,
        "Time(s)": 124
    },
    {
        "Altitude(m)": 705412.6761081055,
        "Argument of Periapsis(deg)": 0.007493500780675703,
        "Eccentricity": 0.0,
        "Inclination(deg)": 45.0,
        "Latitude(deg)": 36.35176287470106,
        "Longitude(deg)": -93.44319940356998,
        "Mean Anomaly(deg)": -303.3214574687626,
        "RAAN(deg)": 319.99292635430385,
        "Satellite Name": "Constellation 1 1411",
        "Satellite Number": 1411,
        "Semi-Major Axis(m)": 7083131.272910544,
        "Time(s)": 125
    },
    {
        "Altitude(m)": 705418.5165525764,
        "Argument of Periapsis(deg)": 0.007553448786921108,
        "Eccentricity": 0.0,
        "Inclination(deg)": 45.0,
        "Latitude(deg)": 36.381094716240874,
        "Longitude(deg)": -93.38135172598557,
        "Mean Anomaly(deg)": -303.26075632851274,
        "RAAN(deg)": 319.9928697651382,
        "Satellite Name": "Constellation 1 1411",
        "Satellite Number": 1411,
        "Semi-Major Axis(m)": 7083131.272910544,
        "Time(s)": 126
    },
    {
        "Altitude(m)": 705424.3537471922,
        "Argument of Periapsis(deg)": 0.007613396793166514,
        "Eccentricity": 0.0,
        "Inclination(deg)": 45.0,
        "Latitude(deg)": 36.410389980090834,
        "Longitude(deg)": -93.31945439032992,
        "Mean Anomaly(deg)": -303.2000551882628,
        "RAAN(deg)": 319.99281317597263,
        "Satellite Name": "Constellation 1 1411",
        "Satellite Number": 1411,
        "Semi-Major Axis(m)": 7083131.272910544,
        "Time(s)": 127
    },
    {
        "Altitude(m)": 705430.1876553667,
        "Argument of Periapsis(deg)": 0.007673344799411918,
        "Eccentricity": 0.0,
        "Inclination(deg)": 45.0,
        "Latitude(deg)": 36.43964860044141,
        "Longitude(deg)": -93.25750753629393,
        "Mean Anomaly(deg)": -303.13935404801293,
        "RAAN(deg)": 319.9927565868071,
        "Satellite Name": "Constellation 1 1411",
        "Satellite Number": 1411,
        "Semi-Major Axis(m)": 7083131.272910544,
        "Time(s)": 128
    },
    {
        "Altitude(m)": 705436.0182405213,
        "Argument of Periapsis(deg)": 0.007733292805657325,
        "Eccentricity": 0.0,
        "Inclination(deg)": 45.0,
        "Latitude(deg)": 36.468870511429856,
        "Longitude(deg)": -93.19551113573375,
        "Mean Anomaly(deg)": -303.078652907763,
        "RAAN(deg)": 319.9926999976415,
        "Satellite Name": "Constellation 1 1411",
        "Satellite Number": 1411,
        "Semi-Major Axis(m)": 7083131.272910544,
        "Time(s)": 129
    },
    {
        "Altitude(m)": 705441.8454661298,
        "Argument of Periapsis(deg)": 0.00779324081190273,
        "Eccentricity": 0.0,
        "Inclination(deg)": 45.0,
        "Latitude(deg)": 36.49805564714024,
        "Longitude(deg)": -93.13346516076977,
        "Mean Anomaly(deg)": -303.0179517675131,
        "RAAN(deg)": 319.992643408476,
        "Satellite Name": "Constellation 1 1411",
        "Satellite Number": 1411,
        "Semi-Major Axis(m)": 7083131.272910544,
        "Time(s)": 130
    },
    {
        "Altitude(m)": 705447.6692956826,
        "Argument of Periapsis(deg)": 0.007853188818148135,
        "Eccentricity": 0.0,
        "Inclination(deg)": 45.0,
        "Latitude(deg)": 36.527203941604256,
        "Longitude(deg)": -93.07136958378737,
        "Mean Anomaly(deg)": -302.95725062726325,
        "RAAN(deg)": 319.99258681931036,
        "Satellite Name": "Constellation 1 1411",
        "Satellite Number": 1411,
        "Semi-Major Axis(m)": 7083131.272910544,
        "Time(s)": 131
    },
    {
        "Altitude(m)": 705453.4896927152,
        "Argument of Periapsis(deg)": 0.007913136824393542,
        "Eccentricity": 0.0,
        "Inclination(deg)": 45.0,
        "Latitude(deg)": 36.55631532880087,
        "Longitude(deg)": -93.00922437743866,
        "Mean Anomaly(deg)": -302.8965494870133,
        "RAAN(deg)": 319.9925302301448,
        "Satellite Name": "Constellation 1 1411",
        "Satellite Number": 1411,
        "Semi-Major Axis(m)": 7083131.272910544,
        "Time(s)": 132
    }
]